{
  "norad_id": 37779,
  "name": "PAKSAT-1R",
  "history": [
    {
      "epoch": "2026-03-28T20:05:55.297248Z",
      "apogee_km": 35796.95750632863,
      "perigee_km": 35774.64350732126,
      "latitude_deg": 0.4674350495030665,
      "longitude_deg": 37.901263537463066,
      "height_km": 35792.43493931285,
      "semi_major_axis_km": 42163.93750682495,
      "eccentricity": 0.00026461,
      "inclination_deg": 0.4811,
      "raan_deg": 85.2367,
      "arg_perigee_deg": 310.5195,
      "mean_anomaly_deg": 129.832,
      "mean_motion_rev_day": 1.00274619
    },
    {
      "epoch": "2026-03-29T02:56:37.836096Z",
      "apogee_km": 35796.96254789659,
      "perigee_km": 35774.539792167765,
      "latitude_deg": -0.0037043115824504256,
      "longitude_deg": 37.85764028015956,
      "height_km": 35792.08611557597,
      "semi_major_axis_km": 42163.88817003218,
      "eccentricity": 0.0002659,
      "inclination_deg": 0.4819,
      "raan_deg": 85.236,
      "arg_perigee_deg": 311.1416,
      "mean_anomaly_deg": 232.1723,
      "mean_motion_rev_day": 1.00274795
    },
    {
      "epoch": "2026-03-30T02:54:13.847040Z",
      "apogee_km": 35797.08553114371,
      "perigee_km": 35774.07257492197,
      "latitude_deg": -0.005625234027181886,
      "longitude_deg": 37.868334170889256,
      "height_km": 35792.33250117693,
      "semi_major_axis_km": 42163.71605303285,
      "eccentricity": 0.0002729,
      "inclination_deg": 0.4845,
      "raan_deg": 85.2241,
      "arg_perigee_deg": 313.0694,
      "mean_anomaly_deg": 230.6526,
      "mean_motion_rev_day": 1.00275409
    },
    {
      "epoch": "2026-03-30T04:36:56.497248Z",
      "apogee_km": 35797.09483637156,
      "perigee_km": 35774.03972287146,
      "latitude_deg": -0.2134254549574283,
      "longitude_deg": 37.8621966765925,
      "height_km": 35787.77498060654,
      "semi_major_axis_km": 42163.70427962151,
      "eccentricity": 0.0002734,
      "inclination_deg": 0.4847,
      "raan_deg": 85.223,
      "arg_perigee_deg": 313.2309,
      "mean_anomaly_deg": 256.2412,
      "mean_motion_rev_day": 1.00275451
    },
    {
      "epoch": "2026-03-30T11:27:34.678080Z",
      "apogee_km": 35797.17773106714,
      "perigee_km": 35773.86544423402,
      "latitude_deg": -0.3712346802925507,
      "longitude_deg": 37.89661312082592,
      "height_km": 35773.3859836013,
      "semi_major_axis_km": 42163.65858765058,
      "eccentricity": 0.00027645,
      "inclination_deg": 0.4855,
      "raan_deg": 85.2176,
      "arg_perigee_deg": 313.7672,
      "mean_anomaly_deg": 358.654,
      "mean_motion_rev_day": 1.00275614
    },
    {
      "epoch": "2026-03-30T16:35:42.625248Z",
      "apogee_km": 35797.227440916,
      "perigee_km": 35773.73724530757,
      "latitude_deg": 0.21501796033382295,
      "longitude_deg": 37.92874669950342,
      "height_km": 35782.0680618849,
      "semi_major_axis_km": 42163.61934311179,
      "eccentricity": 0.00027856,
      "inclination_deg": 0.486,
      "raan_deg": 85.2175,
      "arg_perigee_deg": 314.1487,
      "mean_anomaly_deg": 75.5195,
      "mean_motion_rev_day": 1.00275754
    },
    {
      "epoch": "2026-03-31T20:33:38.676960Z",
      "apogee_km": 35797.42778567038,
      "perigee_km": 35773.14165475953,
      "latitude_deg": 0.47968850716101435,
      "longitude_deg": 37.937085934594805,
      "height_km": 35793.25566406454,
      "semi_major_axis_km": 42163.42172021495,
      "eccentricity": 0.000288,
      "inclination_deg": 0.489,
      "raan_deg": 85.2,
      "arg_perigee_deg": 316.0767,
      "mean_anomaly_deg": 134.2592,
      "mean_motion_rev_day": 1.00276459
    },
    {
      "epoch": "2026-04-01T16:30:46.859040Z",
      "apogee_km": 35797.56390352094,
      "perigee_km": 35772.72129917982,
      "latitude_deg": 0.22149455193281492,
      "longitude_deg": 37.95720428903911,
      "height_km": 35780.99064276578,
      "semi_major_axis_km": 42163.27960135038,
      "eccentricity": 0.0002946,
      "inclination_deg": 0.4911,
      "raan_deg": 85.1897,
      "arg_perigee_deg": 317.6662,
      "mean_anomaly_deg": 72.7982,
      "mean_motion_rev_day": 1.00276966
    },
    {
      "epoch": "2026-04-02T19:53:42.198432Z",
      "apogee_km": 35797.71138206773,
      "perigee_km": 35772.19428010196,
      "latitude_deg": 0.4730113367606167,
      "longitude_deg": 37.97436337838848,
      "height_km": 35791.357828715416,
      "semi_major_axis_km": 42163.08983108485,
      "eccentricity": 0.0003026,
      "inclination_deg": 0.4939,
      "raan_deg": 85.1776,
      "arg_perigee_deg": 319.6132,
      "mean_anomaly_deg": 122.7416,
      "mean_motion_rev_day": 1.00277643
    }
  ]
}